[{"OBJECT_NAME":"HYPERFIELD-1A","OBJECT_ID":"2024-149CY","EPOCH":"2026-03-09T18:21:25.814304","MEAN_MOTION":15.29681349,"ECCENTRICITY":0.00038648,"INCLINATION":97.3842,"RA_OF_ASC_NODE":149.5066,"ARG_OF_PERICENTER":313.7844,"MEAN_ANOMALY":46.3076,"EPHEMERIS_TYPE":0,"CLASSIFICATION_TYPE":"U","NORAD_CAT_ID":60562,"ELEMENT_SET_NO":999,"REV_AT_EPOCH":8683,"BSTAR":0.00030052114,"MEAN_MOTION_DOT":8.569e-5,"MEAN_MOTION_DDOT":0},{"OBJECT_NAME":"STARLINK-32399","OBJECT_ID":"2024-191G","EPOCH":"2026-03-09T05:47:24.329184","MEAN_MOTION":15.2756883,"ECCENTRICITY":2.825e-5,"INCLINATION":42.9975,"RA_OF_ASC_NODE":149.6043,"ARG_OF_PERICENTER":252.0749,"MEAN_ANOMALY":108.0072,"EPHEMERIS_TYPE":0,"CLASSIFICATION_TYPE":"U","NORAD_CAT_ID":61627,"ELEMENT_SET_NO":999,"REV_AT_EPOCH":7755,"BSTAR":8.372984e-6,"MEAN_MOTION_DOT":-3.1e-7,"MEAN_MOTION_DDOT":0}]
